[
{ "query": "Mansfield Road", "tags": {"highway":"yes","name": "Mansfield Road"}},
{ "query": "Great Alfred Street", "tags": {"highway":"yes","name": "Great Alfred Street"}},
{ "query": "a hill", "tags": {"natural": "peak"}},
{ "query": "a verdant valley", "tags": {"surface": "green", "natural": "valley"}},
{ "query": "the market-place", "tags": {"amenity": "marketplace"}},
{ "query": "hexagonal angle tower ", "tags": {"man_made": "tower"}},
{ "query": "Blyth church", "tags": {"building": "church", "name": "Blyth church"}},
{ "query": "East Bridgford church", "tags": {"building": "church", "name": "East Bridgford church"}},
{ "query": "A high brick wall", "tags": {"barrier": "Wall", "material": "brick"}},
{ "query": "an ample kitchen garden", "tags": {}},
{ "query": "The present church, dedicated to St. James", "tags": {"amenity": "place_of_worship", "building": "church", "religion": "*", "denomination": "*"}},
{ "query": "Gresham College", "tags": {"amenity": "college", "name": "Gresham College"}},
{ "query": "all-weather car park", "tags": {"amenity": "parking", "covered": "yes"}},
{ "query": "an adventure playground", "tags": {"amenity": "playground"}},
{ "query": "walled garden ", "tags": {"leisure":"garden","barrier":"wall"}},
{ "query": "a tidal creek", "tags": {"waterway":"stream","intermittent":"yes"}},
{ "query": "horse chestnut trees", "tags": {"natural":"tree","genus":"aesculus","species":"a. hippocastanum"}},
{ "query": "a golf course", "tags": {"leisure":"golf_course"}},
{ "query": "Public footpath/Suffolk Coast Path", "tags": {"highway":"footway","name":"Suffolk Coast Path"}},
{ "query": "Ridgeway footpath", "tags": {"highway":"footway","name":"Ridgeway footpath"}},
{ "query": "entrance of the hall", "tags": {"entrance":"yes"}},
{ "query": "kissing gate", "tags": {"barrier":"kissing_gate"}},
{ "query": "ant hills", "tags": {"natural":"termite_mound"}},
{ "query": "cattle grid", "tags": {"barrier":"cattle_grid","cattle_grid":"*"}}
]
